{
  "type": "FeatureCollection",
  "features": [
    {
      "type": "Feature",
      "properties": {
        "norad_id": 34056,
        "name": "COSMOS 2251 DEB",
        "group": "cosmos-2251-debris",
        "lat": -51.136884493636714,
        "lon": -108.84549028649073,
        "alt_km": 897.2462779037251,
        "timestamp": "2025-12-27T06:41:31.319445+00:00",
        "meta_object_name": "COSMOS 2251 DEB",
        "meta_object_id": "1993-036JT",
        "meta_epoch": "2025-12-26T13:01:30.156096",
        "meta_mean_motion": 14.20602883,
        "meta_eccentricity": 0.0123665,
        "meta_inclination": 74.058,
        "meta_ra_of_asc_node": 51.6952,
        "meta_arg_of_pericenter": 95.8955,
        "meta_mean_anomaly": 334.0123,
        "meta_ephemeris_type": 0,
        "meta_classification_type": "U",
        "meta_norad_cat_id": 34056,
        "meta_element_set_no": 999,
        "meta_rev_at_epoch": 86607,
        "meta_bstar": 0.00071474,
        "meta_mean_motion_dot": 1.637e-05,
        "meta_mean_motion_ddot": 0,
        "tle_line1": "1 34056U 93036JT  25360.54271014  .00001637  00000+0  71474-3 0  9991",
        "tle_line2": "2 34056  74.0580  51.6952 0123665  95.8955 334.0123 14.20602883866073"
      },
      "geometry": {
        "type": "Point",
        "coordinates": [
          -108.84549028649073,
          -51.136884493636714
        ]
      }
    },
    {
      "type": "Feature",
      "properties": {
        "norad_id": 34058,
        "name": "COSMOS 2251 DEB",
        "group": "cosmos-2251-debris",
        "lat": -68.66188675491631,
        "lon": 22.086970983682658,
        "alt_km": 1137.2246244612852,
        "timestamp": "2025-12-27T06:41:31.319456+00:00",
        "meta_object_name": "COSMOS 2251 DEB",
        "meta_object_id": "1993-036JV",
        "meta_epoch": "2025-12-26T21:13:17.344992",
        "meta_mean_motion": 13.5609958,
        "meta_eccentricity": 0.03772737,
        "meta_inclination": 73.9319,
        "meta_ra_of_asc_node": 155.1857,
        "meta_arg_of_pericenter": 147.732,
        "meta_mean_anomaly": 338.151,
        "meta_ephemeris_type": 0,
        "meta_classification_type": "U",
        "meta_norad_cat_id": 34058,
        "meta_element_set_no": 999,
        "meta_rev_at_epoch": 83334,
        "meta_bstar": 0.00090312771,
        "meta_mean_motion_dot": 9.82e-06,
        "meta_mean_motion_ddot": 0,
        "tle_line1": "1 34058U 93036JV  25360.88422853  .00000982  00000+0  90313-3 0  9994",
        "tle_line2": "2 34058  73.9319 155.1857 0377273 147.7320 338.1510 13.56099580833347"
      },
      "geometry": {
        "type": "Point",
        "coordinates": [
          22.086970983682658,
          -68.66188675491631
        ]
      }
    },
    {
      "type": "Feature",
      "properties": {
        "norad_id": 34059,
        "name": "COSMOS 2251 DEB",
        "group": "cosmos-2251-debris",
        "lat": 38.784474259566366,
        "lon": -34.449978666821025,
        "alt_km": 713.7211776655113,
        "timestamp": "2025-12-27T06:41:31.319466+00:00",
        "meta_object_name": "COSMOS 2251 DEB",
        "meta_object_id": "1993-036JW",
        "meta_epoch": "2025-12-26T22:21:16.034976",
        "meta_mean_motion": 14.53038255,
        "meta_eccentricity": 0.00183379,
        "meta_inclination": 74.0376,
        "meta_ra_of_asc_node": 159.5024,
        "meta_arg_of_pericenter": 235.6589,
        "meta_mean_anomaly": 247.3269,
        "meta_ephemeris_type": 0,
        "meta_classification_type": "U",
        "meta_norad_cat_id": 34059,
        "meta_element_set_no": 999,
        "meta_rev_at_epoch": 88665,
        "meta_bstar": 0.0011261922,
        "meta_mean_motion_dot": 4.636e-05,
        "meta_mean_motion_ddot": 0,
        "tle_line1": "1 34059U 93036JW  25360.93143559  .00004636  00000+0  11262-2 0  9999",
        "tle_line2": "2 34059  74.0376 159.5024 0018337 235.6589 247.3269 14.53038255886658"
      },
      "geometry": {
        "type": "Point",
        "coordinates": [
          -34.449978666821025,
          38.784474259566366
        ]
      }
    },
    {
      "type": "Feature",
      "properties": {
        "norad_id": 34061,
        "name": "COSMOS 2251 DEB",
        "group": "cosmos-2251-debris",
        "lat": -6.326337186655837,
        "lon": 58.33355561468808,
        "alt_km": 769.1460685773991,
        "timestamp": "2025-12-27T06:41:31.319476+00:00",
        "meta_object_name": "COSMOS 2251 DEB",
        "meta_object_id": "1993-036JY",
        "meta_epoch": "2025-12-26T18:28:19.285824",
        "meta_mean_motion": 14.40384743,
        "meta_eccentricity": 0.00209309,
        "meta_inclination": 74.0384,
        "meta_ra_of_asc_node": 237.4561,
        "meta_arg_of_pericenter": 312.3988,
        "meta_mean_anomaly": 115.1018,
        "meta_ephemeris_type": 0,
        "meta_classification_type": "U",
        "meta_norad_cat_id": 34061,
        "meta_element_set_no": 999,
        "meta_rev_at_epoch": 88382,
        "meta_bstar": 0.00028377361,
        "meta_mean_motion_dot": 8.76e-06,
        "meta_mean_motion_ddot": 0,
        "tle_line1": "1 34061U 93036JY  25360.76966766  .00000876  00000+0  28377-3 0  9994",
        "tle_line2": "2 34061  74.0384 237.4561 0020930 312.3988 115.1018 14.40384743883822"
      },
      "geometry": {
        "type": "Point",
        "coordinates": [
          58.33355561468808,
          -6.326337186655837
        ]
      }
    },
    {
      "type": "Feature",
      "properties": {
        "norad_id": 34062,
        "name": "COSMOS 2251 DEB",
        "group": "cosmos-2251-debris",
        "lat": 15.332381770049333,
        "lon": -75.07441901039019,
        "alt_km": 584.846760049295,
        "timestamp": "2025-12-27T06:41:31.319486+00:00",
        "meta_object_name": "COSMOS 2251 DEB",
        "meta_object_id": "1993-036JZ",
        "meta_epoch": "2025-12-26T17:30:38.710944",
        "meta_mean_motion": 14.79227071,
        "meta_eccentricity": 0.00724733,
        "meta_inclination": 74.0278,
        "meta_ra_of_asc_node": 110.5102,
        "meta_arg_of_pericenter": 186.6664,
        "meta_mean_anomaly": 294.0438,
        "meta_ephemeris_type": 0,
        "meta_classification_type": "U",
        "meta_norad_cat_id": 34062,
        "meta_element_set_no": 999,
        "meta_rev_at_epoch": 88802,
        "meta_bstar": 0.0029364506,
        "meta_mean_motion_dot": 0.00022844,
        "meta_mean_motion_ddot": 0,
        "tle_line1": "1 34062U 93036JZ  25360.72961471  .00022844  00000+0  29365-2 0  9995",
        "tle_line2": "2 34062  74.0278 110.5102 0072473 186.6664 294.0438 14.79227071888021"
      },
      "geometry": {
        "type": "Point",
        "coordinates": [
          -75.07441901039019,
          15.332381770049333
        ]
      }
    },
    {
      "type": "Feature",
      "properties": {
        "norad_id": 34064,
        "name": "COSMOS 2251 DEB",
        "group": "cosmos-2251-debris",
        "lat": -73.01932418246078,
        "lon": 133.56365946145743,
        "alt_km": 746.1240353695857,
        "timestamp": "2025-12-27T06:41:31.319496+00:00",
        "meta_object_name": "COSMOS 2251 DEB",
        "meta_object_id": "1993-036KB",
        "meta_epoch": "2025-12-26T22:53:58.272288",
        "meta_mean_motion": 14.42385259,
        "meta_eccentricity": 0.00224218,
        "meta_inclination": 74.0315,
        "meta_ra_of_asc_node": 244.4977,
        "meta_arg_of_pericenter": 309.1575,
        "meta_mean_anomaly": 69.895,
        "meta_ephemeris_type": 0,
        "meta_classification_type": "U",
        "meta_norad_cat_id": 34064,
        "meta_element_set_no": 999,
        "meta_rev_at_epoch": 88347,
        "meta_bstar": 0.00053189346,
        "meta_mean_motion_dot": 1.738e-05,
        "meta_mean_motion_ddot": 0,
        "tle_line1": "1 34064U 93036KB  25360.95414667  .00001738  00000+0  53189-3 0  9993",
        "tle_line2": "2 34064  74.0315 244.4977 0022421 309.1575  69.8950 14.42385259883477"
      },
      "geometry": {
        "type": "Point",
        "coordinates": [
          133.56365946145743,
          -73.01932418246078
        ]
      }
    },
    {
      "type": "Feature",
      "properties": {
        "norad_id": 34065,
        "name": "COSMOS 2251 DEB",
        "group": "cosmos-2251-debris",
        "lat": 50.397267218858,
        "lon": -108.41483191976114,
        "alt_km": 759.2042568651505,
        "timestamp": "2025-12-27T06:41:31.319506+00:00",
        "meta_object_name": "COSMOS 2251 DEB",
        "meta_object_id": "1993-036KC",
        "meta_epoch": "2025-12-26T22:11:57.433056",
        "meta_mean_motion": 14.38077233,
        "meta_eccentricity": 0.00169244,
        "meta_inclination": 74.0345,
        "meta_ra_of_asc_node": 231.9928,
        "meta_arg_of_pericenter": 327.1748,
        "meta_mean_anomaly": 54.7164,
        "meta_ephemeris_type": 0,
        "meta_classification_type": "U",
        "meta_norad_cat_id": 34065,
        "meta_element_set_no": 999,
        "meta_rev_at_epoch": 88409,
        "meta_bstar": 0.00016706956,
        "meta_mean_motion_dot": 4.8e-06,
        "meta_mean_motion_ddot": 0,
        "tle_line1": "1 34065U 93036KC  25360.92497029  .00000480  00000+0  16707-3 0  9992",
        "tle_line2": "2 34065  74.0345 231.9928 0016924 327.1748  54.7164 14.38077233884095"
      },
      "geometry": {
        "type": "Point",
        "coordinates": [
          -108.41483191976114,
          50.397267218858
        ]
      }
    }
  ]
}